ALOS-2                  
1 39766U 14029A   26092.05209440  .00001861  00000+0  25604-3 0  9995
2 39766  97.9196 190.3096 0001973  99.9401 260.2034 14.79465602640320
YAOGAN-29               
1 41038U 15069A   26092.81435226 -.00000005  00000+0  60846-5 0  9991
2 41038  98.0105 121.3048 0000063 327.2643  32.8566 14.83019656559457
ASTRO-H (HITOMI)        
1 41337U 16012A   26092.62813487  .00003678  00000+0  21405-3 0  9994
2 41337  30.9993 202.0484 0009674 212.6611 147.3429 15.10160383555854
HXMT (HUIYAN)           
1 42758U 17034A   26092.80057480  .00008903  00000+0  43858-3 0  9992
2 42758  43.0136 242.5934 0031175  25.0696 335.1659 15.17776820486205
SAOCOM 1A               
1 43641U 18076A   26092.79425913 -.00000165  00000+0 -14137-4 0  9992
2 43641  97.8898 280.6268 0001340  86.1478 273.9889 14.82144488404933
H-2A R/B                
1 43682U 18084L   26092.55019885  .00026368  00000+0  60583-3 0  9993
2 43682  98.8693 315.0546 0023451 301.3895  58.5054 15.42391885409451
SAOCOM 1B               
1 46265U 20059A   26092.82550793  .00001430  00000+0  18619-3 0  9992
2 46265  97.8885 279.7547 0001488  84.5202 275.6180 14.82150615302325
CSS (TIANHE)            
1 48274U 21035A   26091.36022109  .00024066  00000+0  27286-3 0  9992
2 48274  41.4670  70.0996 0003721  85.9086 274.2179 15.61804306281152
COSMOS 2550             
1 48865U 21056A   26091.47039022  .00005639  00000+0  17705-3 0  9995
2 48865  67.1445 331.9738 0008328 269.3207  90.6993 15.33839536266954
CZ-2C R/B               
1 52794U 22058K   26092.67252019  .00051433  00000+0  69661-3 0  9991
2 52794  50.1881 194.7552 0041270 303.7949  55.9095 15.56112210213861
CZ-2C R/B               
1 54039U 22132E   26092.76466992  .00062063  00000+0  64740-3 0  9999
2 54039  97.2951  96.8533 0016380  10.9620 349.1993 15.64161176194130
GSLV R/B                
1 54149U 22138AN  26092.58700846  .00003934  00000+0  33832-3 0  9996
2 54149  87.3852 158.3612 0023858  68.0421 292.3343 14.96927290187507
